[
  {
    "OBJECT_NAME": "STARLINK-32390",
    "OBJECT_ID": "24191K",
    "EPOCH": "2025-11-11T03:24:48.401568",
    "MEAN_MOTION": 15.27580454,
    "ECCENTRICITY": 0.0001382,
    "INCLINATION": 43.0027,
    "RA_OF_ASC_NODE": 104.205,
    "ARG_OF_PERICENTER": 256.9986,
    "MEAN_ANOMALY": 103.0711,
    "EPHEMERIS_TYPE": 0,
    "CLASSIFICATION_TYPE": "U",
    "NORAD_CAT_ID": 61630,
    "ELEMENT_SET_NO": 999,
    "REV_AT_EPOCH": 5940,
    "BSTAR": 2.8041e-05,
    "MEAN_MOTION_DOT": 5.1e-06,
    "MEAN_MOTION_DDOT": 0.0,
    "TLE_LINE1": "1 61630U 24191K   25315.14222687  .00000510  00000+0  28041-4 0  9995",
    "TLE_LINE2": "2 61630  43.0027 104.2050 0001382 256.9986 103.0711 15.27580454 59407",
    "COMMENT": "Grouped by shell and plane from TLE"
  },
  {
    "OBJECT_NAME": "STARLINK-32348",
    "OBJECT_ID": "24191L",
    "EPOCH": "2025-11-11T03:11:09.456576",
    "MEAN_MOTION": 15.27586637,
    "ECCENTRICITY": 9.05e-05,
    "INCLINATION": 42.9985,
    "RA_OF_ASC_NODE": 107.6052,
    "ARG_OF_PERICENTER": 299.0302,
    "MEAN_ANOMALY": 61.0459,
    "EPHEMERIS_TYPE": 0,
    "CLASSIFICATION_TYPE": "U",
    "NORAD_CAT_ID": 61631,
    "ELEMENT_SET_NO": 999,
    "REV_AT_EPOCH": 5936,
    "BSTAR": 5.4913999999999996e-05,
    "MEAN_MOTION_DOT": 1.25e-05,
    "MEAN_MOTION_DDOT": 0.0,
    "TLE_LINE1": "1 61631U 24191L   25315.13274834  .00001250  00000+0  54914-4 0  9996",
    "TLE_LINE2": "2 61631  42.9985 107.6052 0000905 299.0302  61.0459 15.27586637 59364",
    "COMMENT": "Grouped by shell and plane from TLE"
  },
  {
    "OBJECT_NAME": "STARLINK-32455",
    "OBJECT_ID": "24191M",
    "EPOCH": "2025-11-11T03:33:23.044896",
    "MEAN_MOTION": 15.27580155,
    "ECCENTRICITY": 0.0001473,
    "INCLINATION": 43.0056,
    "RA_OF_ASC_NODE": 107.7199,
    "ARG_OF_PERICENTER": 257.9559,
    "MEAN_ANOMALY": 102.1128,
    "EPHEMERIS_TYPE": 0,
    "CLASSIFICATION_TYPE": "U",
    "NORAD_CAT_ID": 61632,
    "ELEMENT_SET_NO": 999,
    "REV_AT_EPOCH": 5936,
    "BSTAR": 8.021200000000001e-05,
    "MEAN_MOTION_DOT": 1.946e-05,
    "MEAN_MOTION_DDOT": 0.0,
    "TLE_LINE1": "1 61632U 24191M   25315.14818339  .00001946  00000+0  80212-4 0  9994",
    "TLE_LINE2": "2 61632  43.0056 107.7199 0001473 257.9559 102.1128 15.27580155 59366",
    "COMMENT": "Grouped by shell and plane from TLE"
  },
  {
    "OBJECT_NAME": "STARLINK-32396",
    "OBJECT_ID": "24191N",
    "EPOCH": "2025-11-11T03:16:42.710016",
    "MEAN_MOTION": 15.27584136,
    "ECCENTRICITY": 0.0001322,
    "INCLINATION": 42.9992,
    "RA_OF_ASC_NODE": 107.6355,
    "ARG_OF_PERICENTER": 282.8523,
    "MEAN_ANOMALY": 77.2181,
    "EPHEMERIS_TYPE": 0,
    "CLASSIFICATION_TYPE": "U",
    "NORAD_CAT_ID": 61633,
    "ELEMENT_SET_NO": 999,
    "REV_AT_EPOCH": 5936,
    "BSTAR": 0.00012633,
    "MEAN_MOTION_DOT": 3.216e-05,
    "MEAN_MOTION_DDOT": 0.0,
    "TLE_LINE1": "1 61633U 24191N   25315.13660544  .00003216  00000+0  12633-3 0  9990",
    "TLE_LINE2": "2 61633  42.9992 107.6355 0001322 282.8523  77.2181 15.27584136 59362",
    "COMMENT": "Grouped by shell and plane from TLE"
  },
  {
    "OBJECT_NAME": "STARLINK-32370",
    "OBJECT_ID": "24191Q",
    "EPOCH": "2025-11-11T02:27:26.953920",
    "MEAN_MOTION": 15.27588432,
    "ECCENTRICITY": 0.0001541,
    "INCLINATION": 42.9996,
    "RA_OF_ASC_NODE": 103.9068,
    "ARG_OF_PERICENTER": 283.4564,
    "MEAN_ANOMALY": 76.6116,
    "EPHEMERIS_TYPE": 0,
    "CLASSIFICATION_TYPE": "U",
    "NORAD_CAT_ID": 61635,
    "ELEMENT_SET_NO": 999,
    "REV_AT_EPOCH": 5940,
    "BSTAR": 0.0,
    "MEAN_MOTION_DOT": -4.62e-06,
    "MEAN_MOTION_DDOT": 0.0,
    "TLE_LINE1": "1 61635U 24191Q   25315.10239530 -.00000462  00000+0 -72736-5 0  9990",
    "TLE_LINE2": "2 61635  42.9996 103.9068 0001541 283.4564  76.6116 15.27588432 59402",
    "COMMENT": "Grouped by shell and plane from TLE"
  },
  {
    "OBJECT_NAME": "STARLINK-32419",
    "OBJECT_ID": "24191S",
    "EPOCH": "2025-11-10T11:37:42.103776",
    "MEAN_MOTION": 15.27581971,
    "ECCENTRICITY": 3.16e-05,
    "INCLINATION": 43.0011,
    "RA_OF_ASC_NODE": 107.8705,
    "ARG_OF_PERICENTER": 198.5924,
    "MEAN_ANOMALY": 161.4916,
    "EPHEMERIS_TYPE": 0,
    "CLASSIFICATION_TYPE": "U",
    "NORAD_CAT_ID": 61637,
    "ELEMENT_SET_NO": 999,
    "REV_AT_EPOCH": 5930,
    "BSTAR": 0.0,
    "MEAN_MOTION_DOT": -1.032e-05,
    "MEAN_MOTION_DDOT": 0.0,
    "TLE_LINE1": "1 61637U 24191S   25314.48451509 -.00001032  00000+0 -27983-4 0  9991",
    "TLE_LINE2": "2 61637  43.0011 107.8705 0000316 198.5924 161.4916 15.27581971 59301",
    "COMMENT": "Grouped by shell and plane from TLE"
  },
  {
    "OBJECT_NAME": "STARLINK-32320",
    "OBJECT_ID": "24191T",
    "EPOCH": "2025-11-11T03:48:09.800928",
    "MEAN_MOTION": 15.27585276,
    "ECCENTRICITY": 0.0001501,
    "INCLINATION": 43.0034,
    "RA_OF_ASC_NODE": 107.7925,
    "ARG_OF_PERICENTER": 265.3192,
    "MEAN_ANOMALY": 94.7488,
    "EPHEMERIS_TYPE": 0,
    "CLASSIFICATION_TYPE": "U",
    "NORAD_CAT_ID": 61638,
    "ELEMENT_SET_NO": 999,
    "REV_AT_EPOCH": 5936,
    "BSTAR": 6.0466e-05,
    "MEAN_MOTION_DOT": 1.402e-05,
    "MEAN_MOTION_DDOT": 0.0,
    "TLE_LINE1": "1 61638U 24191T   25315.15844677  .00001402  00000+0  60466-4 0  9991",
    "TLE_LINE2": "2 61638  43.0034 107.7925 0001501 265.3192  94.7488 15.27585276 59367",
    "COMMENT": "Grouped by shell and plane from TLE"
  },
  {
    "OBJECT_NAME": "STARLINK-32341",
    "OBJECT_ID": "24191U",
    "EPOCH": "2025-11-11T03:08:09.328128",
    "MEAN_MOTION": 15.27586205,
    "ECCENTRICITY": 0.0001241,
    "INCLINATION": 43.0024,
    "RA_OF_ASC_NODE": 104.122,
    "ARG_OF_PERICENTER": 264.0297,
    "MEAN_ANOMALY": 96.0414,
    "EPHEMERIS_TYPE": 0,
    "CLASSIFICATION_TYPE": "U",
    "NORAD_CAT_ID": 61639,
    "ELEMENT_SET_NO": 999,
    "REV_AT_EPOCH": 5940,
    "BSTAR": 0.0,
    "MEAN_MOTION_DOT": -1.328e-05,
    "MEAN_MOTION_DDOT": 0.0,
    "TLE_LINE1": "1 61639U 24191U   25315.13066352 -.00001328  00000+0 -38723-4 0  9996",
    "TLE_LINE2": "2 61639  43.0024 104.1220 0001241 264.0297  96.0414 15.27586205 59401",
    "COMMENT": "Grouped by shell and plane from TLE"
  },
  {
    "OBJECT_NAME": "STARLINK-32339",
    "OBJECT_ID": "24191V",
    "EPOCH": "2025-11-10T16:56:57.865056",
    "MEAN_MOTION": 15.27579689,
    "ECCENTRICITY": 0.0001465,
    "INCLINATION": 42.9997,
    "RA_OF_ASC_NODE": 106.0893,
    "ARG_OF_PERICENTER": 267.3056,
    "MEAN_ANOMALY": 92.7628,
    "EPHEMERIS_TYPE": 0,
    "CLASSIFICATION_TYPE": "U",
    "NORAD_CAT_ID": 61640,
    "ELEMENT_SET_NO": 999,
    "REV_AT_EPOCH": 5933,
    "BSTAR": 8.4871e-05,
    "MEAN_MOTION_DOT": 2.074e-05,
    "MEAN_MOTION_DDOT": 0.0,
    "TLE_LINE1": "1 61640U 24191V   25314.70622529  .00002074  00000+0  84871-4 0  9996",
    "TLE_LINE2": "2 61640  42.9997 106.0893 0001465 267.3056  92.7628 15.27579689 59334",
    "COMMENT": "Grouped by shell and plane from TLE"
  },
  {
    "OBJECT_NAME": "STARLINK-32327",
    "OBJECT_ID": "24191W",
    "EPOCH": "2025-11-11T02:42:14.599008",
    "MEAN_MOTION": 15.27608635,
    "ECCENTRICITY": 9.71e-05,
    "INCLINATION": 42.9998,
    "RA_OF_ASC_NODE": 103.9832,
    "ARG_OF_PERICENTER": 252.3917,
    "MEAN_ANOMALY": 107.6829,
    "EPHEMERIS_TYPE": 0,
    "CLASSIFICATION_TYPE": "U",
    "NORAD_CAT_ID": 61641,
    "ELEMENT_SET_NO": 999,
    "REV_AT_EPOCH": 5940,
    "BSTAR": 0.0,
    "MEAN_MOTION_DOT": -6.628e-05,
    "MEAN_MOTION_DDOT": 0.0,
    "TLE_LINE1": "1 61641U 24191W   25315.11266897 -.00006628  00000+0 -23136-3 0  9992",
    "TLE_LINE2": "2 61641  42.9998 103.9832 0000971 252.3917 107.6829 15.27608635 59407",
    "COMMENT": "Grouped by shell and plane from TLE"
  },
  {
    "OBJECT_NAME": "STARLINK-32264",
    "OBJECT_ID": "24191X",
    "EPOCH": "2025-11-11T03:27:49.163328",
    "MEAN_MOTION": 15.27586701,
    "ECCENTRICITY": 8.73e-05,
    "INCLINATION": 43.0017,
    "RA_OF_ASC_NODE": 107.6911,
    "ARG_OF_PERICENTER": 272.7912,
    "MEAN_ANOMALY": 87.2839,
    "EPHEMERIS_TYPE": 0,
    "CLASSIFICATION_TYPE": "U",
    "NORAD_CAT_ID": 61642,
    "ELEMENT_SET_NO": 999,
    "REV_AT_EPOCH": 5936,
    "BSTAR": 7.9811e-05,
    "MEAN_MOTION_DOT": 1.935e-05,
    "MEAN_MOTION_DDOT": 0.0,
    "TLE_LINE1": "1 61642U 24191X   25315.14431902  .00001935  00000+0  79811-4 0  9993",
    "TLE_LINE2": "2 61642  43.0017 107.6911 0000873 272.7912  87.2839 15.27586701 59361",
    "COMMENT": "Grouped by shell and plane from TLE"
  },
  {
    "OBJECT_NAME": "STARLINK-32337",
    "OBJECT_ID": "24191Y",
    "EPOCH": "2025-11-10T19:02:34.125792",
    "MEAN_MOTION": 15.27579442,
    "ECCENTRICITY": 0.0001335,
    "INCLINATION": 42.9996,
    "RA_OF_ASC_NODE": 105.8863,
    "ARG_OF_PERICENTER": 286.5881,
    "MEAN_ANOMALY": 73.4824,
    "EPHEMERIS_TYPE": 0,
    "CLASSIFICATION_TYPE": "U",
    "NORAD_CAT_ID": 61643,
    "ELEMENT_SET_NO": 999,
    "REV_AT_EPOCH": 6011,
    "BSTAR": 4.8421e-05,
    "MEAN_MOTION_DOT": 1.071e-05,
    "MEAN_MOTION_DDOT": 0.0,
    "TLE_LINE1": "1 61643U 24191Y   25314.79345053  .00001071  00000+0  48421-4 0  9999",
    "TLE_LINE2": "2 61643  42.9996 105.8863 0001335 286.5881  73.4824 15.27579442 60114",
    "COMMENT": "Grouped by shell and plane from TLE"
  },
  {
    "OBJECT_NAME": "STARLINK-32529",
    "OBJECT_ID": "24224A",
    "EPOCH": "2025-11-11T02:50:55.228128",
    "MEAN_MOTION": 15.27606144,
    "ECCENTRICITY": 7.94e-05,
    "INCLINATION": 42.9985,
    "RA_OF_ASC_NODE": 107.9682,
    "ARG_OF_PERICENTER": 274.8182,
    "MEAN_ANOMALY": 85.2579,
    "EPHEMERIS_TYPE": 0,
    "CLASSIFICATION_TYPE": "U",
    "NORAD_CAT_ID": 62139,
    "ELEMENT_SET_NO": 999,
    "REV_AT_EPOCH": 5428,
    "BSTAR": 0.00095536,
    "MEAN_MOTION_DOT": 0.00026142,
    "MEAN_MOTION_DDOT": 0.0,
    "TLE_LINE1": "1 62139U 24224A   25315.11869477  .00026142  00000+0  95536-3 0  9999",
    "TLE_LINE2": "2 62139  42.9985 107.9682 0000794 274.8182  85.2579 15.27606144 54286",
    "COMMENT": "Grouped by shell and plane from TLE"
  }
]